OBJECT_NAME,OBJECT_ID,EPOCH,MEAN_MOTION,ECCENTRICITY,INCLINATION,RA_OF_ASC_NODE,ARG_OF_PERICENTER,MEAN_ANOMALY,EPHEMERIS_TYPE,CLASSIFICATION_TYPE,NORAD_CAT_ID,ELEMENT_SET_NO,REV_AT_EPOCH,BSTAR,MEAN_MOTION_DOT,MEAN_MOTION_DDOT
IONOSFERA-M 2,2024-199B,2026-06-11T06:00:34.166016,14.22756357,.00012903,98.7180,35.3958,43.5967,316.5313,0,U,61736,999,12998,.3505254E-4,.35E-6,0
PRSC-EO1,2025-012A,2026-06-11T06:11:14.646624,15.17693395,.00041865,97.4230,234.8332,278.5682,81.5078,0,U,62725,999,7729,.27495901E-3,.5476E-4,0
BIOMASS,2025-090A,2026-06-11T05:42:43.542144,14.67535766,.00013723,98.0741,349.6413,90.7116,269.4246,0,U,63772,999,5981,.16454144E-3,.885E-5,0
GOSAT-GW (IBUKI GW),2025-141A,2026-06-11T07:50:13.360992,14.67554424,.0001464,98.0569,99.7390,85.4363,274.7009,0,U,64694,999,5098,.88307036E-4,.453E-5,0
IONOSFERA-M 3,2025-155A,2026-06-11T06:18:23.808384,14.21485472,.00006532,98.6022,124.3170,168.3720,191.7473,0,U,64876,999,4556,.36237063E-4,.36E-6,0
IONOSFERA-M 4,2025-155B,2026-06-11T05:27:13.358016,14.21487650,.00008282,98.6021,124.1998,118.5468,241.5793,0,U,64877,999,4555,.37037466E-4,.38E-6,0
MICROCARB,2025-156A,2026-06-11T04:03:38.092032,14.72319209,.00150424,97.9831,239.4139,293.2892,66.6731,0,U,64899,999,4708,.70671606E-4,.398E-5,0
CO3D 3,2025-156B,2026-06-11T06:19:33.111552,15.20212411,.0001246,97.4331,241.0416,136.6232,223.5101,0,U,64900,999,4863,.15866213E-3,.337E-4,0
CO3D 4,2025-156C,2026-06-11T06:19:46.312608,15.20198339,.00006033,97.4331,241.0415,25.4264,334.7001,0,U,64901,999,4863,.15944455E-4,.278E-5,0
CO3D 2,2025-156D,2026-06-11T05:31:45.506784,15.20211166,.0001469,97.4330,240.9079,114.3595,245.7793,0,U,64902,999,4862,.18499598E-3,.394E-4,0
CO3D 1,2025-156E,2026-06-11T05:31:58.827072,15.20193225,.0001232,97.4329,240.9083,113.8487,246.2878,0,U,64903,999,4862,.21930803E-3,.4682E-4,0
PRSC-S1,2025-164A,2026-06-11T03:56:54.108096,15.06402780,.00073665,41.1313,321.7306,307.4540,52.5603,0,U,65055,999,4752,.31806203E-3,.4596E-4,0
SENTINEL-6B,2025-264A,2026-06-11T05:31:23.820384,12.80929892,.00080402,66.0388,147.5513,269.2230,90.7864,0,U,66514,999,2640,.13146992E-3,-.31E-6,0
CAS500-3,2025-274F,2026-06-11T05:33:33.290784,14.88306355,.00064636,97.7448,90.4183,125.8657,234.3161,0,U,66655,999,2926,.11819569E-3,.1039E-4,0
CSG-3,2026-001A,2026-06-11T06:11:39.818400,14.82149534,.00013498,97.8887,345.9458,93.4208,266.7160,0,U,67304,999,2358,.36684048E-4,.24E-5,0
PRSC-E03,2026-092A,2026-06-11T05:21:41.067072,15.06638472,.00047282,37.9997,124.8466,321.1255,38.9166,0,U,68835,999,705,.1425384E-3,.2045E-4,0
CAS500-2,2026-100AK,2026-06-11T05:30:30.636864,15.20518500,.00111825,97.4086,60.1873,53.1464,307.0795,0,U,69013,999,590,.23274298E-3,.5028E-4,0
