IONOSFERA-M 2           
1 61736U 24199B   26162.25039544  .00000035  00000+0  35053-4 0  9994
2 61736  98.7180  35.3958 0001290  43.5967 316.5313 14.22756357129980
PRSC-EO1                
1 62725U 25012A   26162.25780841  .00005476  00000+0  27496-3 0  9996
2 62725  97.4230 234.8332 0004186 278.5682  81.5078 15.17693395 77294
BIOMASS                 
1 63772U 25090A   26162.23800396  .00000885  00000+0  16454-3 0  9992
2 63772  98.0741 349.6413 0001372  90.7116 269.4246 14.67535766 59819
GOSAT-GW (IBUKI GW)     
1 64694U 25141A   26162.32654353  .00000453  00000+0  88307-4 0  9991
2 64694  98.0569  99.7390 0001464  85.4363 274.7009 14.67554424 50982
IONOSFERA-M 3           
1 64876U 25155A   26162.26277556  .00000036  00000+0  36237-4 0  9999
2 64876  98.6022 124.3170 0000653 168.3720 191.7473 14.21485472 45569
IONOSFERA-M 4           
1 64877U 25155B   26162.22723794  .00000038  00000+0  37037-4 0  9997
2 64877  98.6021 124.1998 0000828 118.5468 241.5793 14.21487650 45553
MICROCARB               
1 64899U 25156A   26162.16919088  .00000398  00000+0  70672-4 0  9999
2 64899  97.9831 239.4139 0015042 293.2892  66.6731 14.72319209 47089
CO3D 3                  
1 64900U 25156B   26162.26357768  .00003370  00000+0  15866-3 0  9990
2 64900  97.4331 241.0416 0001246 136.6232 223.5101 15.20212411 48636
CO3D 4                  
1 64901U 25156C   26162.26373047  .00000278  00000+0  15944-4 0  9991
2 64901  97.4331 241.0415 0000603  25.4264 334.7001 15.20198339 48638
CO3D 2                  
1 64902U 25156D   26162.23038781  .00003940  00000+0  18500-3 0  9991
2 64902  97.4330 240.9079 0001469 114.3595 245.7793 15.20211166 48620
CO3D 1                  
1 64903U 25156E   26162.23054198  .00004682  00000+0  21931-3 0  9998
2 64903  97.4329 240.9083 0001232 113.8487 246.2878 15.20193225 48621
PRSC-S1                 
1 65055U 25164A   26162.16451514  .00004596  00000+0  31806-3 0  9997
2 65055  41.1313 321.7306 0007366 307.4540  52.5603 15.06402780 47525
SENTINEL-6B             
1 66514U 25264A   26162.23013681 -.00000031  00000+0  13147-3 0  9995
2 66514  66.0388 147.5513 0008040 269.2230  90.7864 12.80929892 26403
CAS500-3                
1 66655U 25274F   26162.23163531  .00001039  00000+0  11820-3 0  9996
2 66655  97.7448  90.4183 0006463 125.8657 234.3161 14.88306355 29269
CSG-3                   
1 67304U 26001A   26162.25809975  .00000240  00000+0  36684-4 0  9997
2 67304  97.8887 345.9458 0001349  93.4208 266.7160 14.82149534 23587
PRSC-E03                
1 68835U 26092A   26162.22339198  .00002045  00000+0  14254-3 0  9992
2 68835  37.9997 124.8466 0004728 321.1255  38.9166 15.06638472  7054
CAS500-2                
1 69013U 26100AK  26162.22952126  .00005028  00000+0  23274-3 0  9999
2 69013  97.4086  60.1873 0011182  53.1464 307.0795 15.20518500  5908
